start=new Date('2023-04-06T00:00:00.000Z').valueOf();
sats=[{"FILE":"3880853","MEAN_MOTION_DDOT":"0.0000000000000","EPHEMERIS_TYPE":"0","RA_OF_ASC_NODE":"188.5472","OBJECT_TYPE":"PAYLOAD","SITE":"AFETR","MEAN_ANOMALY":"308.0629","MEAN_ELEMENT_THEORY":"SGP4","NORAD_CAT_ID":"52123","ARG_OF_PERICENTER":"52.0453","INCLINATION":"53.2160","PERIOD":"95.437","TIME_SYSTEM":"UTC","APOAPSIS":"540.419","MEAN_MOTION_DOT":"0.00004379","TLE_LINE1":"1 52123U 22029AM  23095.57877488  .00004379  00000-0  29300-3 0  9991","TLE_LINE2":"2 52123  53.2160 188.5472 0000991  52.0453 308.0629 15.08843881 59531","COUNTRY_CODE":"US","MEAN_MOTION":"15.08843881","CENTER_NAME":"EARTH","DECAY_DATE":null,"PERIAPSIS":"539.048","ECCENTRICITY":"0.00009910","REV_AT_EPOCH":"5953","BSTAR":"0.00029300000000","CLASSIFICATION_TYPE":"U","OBJECT_ID":"2022-029AM","EPOCH":"2023-04-05T13:53:26.149632","LAUNCH_DATE":"2022-03-19","ELEMENT_SET_NO":"999","OBJECT_NAME":"STARLINK-3725","GP_ID":"229537758","REF_FRAME":"TEME","RCS_SIZE":"LARGE","SEMIMAJOR_AXIS":"6917.869"},{"TLE_LINE2":"2 52124  53.2143 198.1543 0001163  81.4135 278.6989 15.08839871 59405","COUNTRY_CODE":"US","MEAN_MOTION":"15.08839871","PERIAPSIS":"538.941","DECAY_DATE":null,"REV_AT_EPOCH":"5940","ECCENTRICITY":"0.00011630","CENTER_NAME":"EARTH","CLASSIFICATION_TYPE":"U","OBJECT_ID":"2022-029AN","BSTAR":"0.00233310000000","SEMIMAJOR_AXIS":"6917.881","EPOCH":"2023-04-05T15:59:17.420640","LAUNCH_DATE":"2022-03-19","ELEMENT_SET_NO":"999","GP_ID":"229571166","RCS_SIZE":"LARGE","REF_FRAME":"TEME","OBJECT_NAME":"STARLINK-3684","RA_OF_ASC_NODE":"198.1543","EPHEMERIS_TYPE":"0","OBJECT_TYPE":"PAYLOAD","MEAN_MOTION_DDOT":"0.0000000000000","FILE":"3881153","NORAD_CAT_ID":"52124","MEAN_ELEMENT_THEORY":"SGP4","MEAN_ANOMALY":"278.6989","PERIOD":"95.438","INCLINATION":"53.2143","ARG_OF_PERICENTER":"81.4135","SITE":"AFETR","MEAN_MOTION_DOT":"0.00037039","APOAPSIS":"540.550","TIME_SYSTEM":"UTC","TLE_LINE1":"1 52124U 22029AN  23095.66617385  .00037039  00000-0  23331-2 0  9996"},{"MEAN_ANOMALY":"263.4211","MEAN_ELEMENT_THEORY":"SGP4","NORAD_CAT_ID":"52125","ARG_OF_PERICENTER":"96.6911","PERIOD":"95.437","INCLINATION":"53.2172","SITE":"AFETR","EPHEMERIS_TYPE":"0","RA_OF_ASC_NODE":"188.5613","OBJECT_TYPE":"PAYLOAD","FILE":"3880853","MEAN_MOTION_DDOT":"0.0000000000000","TLE_LINE1":"1 52125U 22029AP  23095.57508953  .00001700  00000-0  12487-3 0  9994","APOAPSIS":"540.521","MEAN_MOTION_DOT":"0.00001700","TIME_SYSTEM":"UTC","DECAY_DATE":null,"PERIAPSIS":"538.947","ECCENTRICITY":"0.00011380","REV_AT_EPOCH":"5953","CENTER_NAME":"EARTH","TLE_LINE2":"2 52125  53.2172 188.5613 0001138  96.6911 263.4211 15.08843779 59537","MEAN_MOTION":"15.08843779","COUNTRY_CODE":"US","SEMIMAJOR_AXIS":"6917.869","ELEMENT_SET_NO":"999","LAUNCH_DATE":"2022-03-19","EPOCH":"2023-04-05T13:48:07.735392","OBJECT_NAME":"STARLINK-3727","GP_ID":"229538258","REF_FRAME":"TEME","RCS_SIZE":"LARGE","CLASSIFICATION_TYPE":"U","OBJECT_ID":"2022-029AP","BSTAR":"0.00012487000000"},{"SEMIMAJOR_AXIS":"6917.875","GP_ID":"229538498","RCS_SIZE":"LARGE","REF_FRAME":"TEME","OBJECT_NAME":"STARLINK-3732","ELEMENT_SET_NO":"999","LAUNCH_DATE":"2022-03-19","EPOCH":"2023-04-05T12:23:20.433408","OBJECT_ID":"2022-029AQ","CLASSIFICATION_TYPE":"U","BSTAR":"-0.00010773000000","REV_AT_EPOCH":"5951","ECCENTRICITY":"0.00013570","PERIAPSIS":"538.801","DECAY_DATE":null,"CENTER_NAME":"EARTH","MEAN_MOTION":"15.08841815","COUNTRY_CODE":"US","TLE_LINE2":"2 52126  53.2150 188.8243 0001357 120.9933 239.1192 15.08841815 59519","TLE_LINE1":"1 52126U 22029AQ  23095.51620872 -.00002002  00000-0 -10773-3 0  9998","MEAN_MOTION_DOT":"-0.00002002","APOAPSIS":"540.679","TIME_SYSTEM":"UTC","INCLINATION":"53.2150","PERIOD":"95.437","ARG_OF_PERICENTER":"120.9933","NORAD_CAT_ID":"52126","MEAN_ELEMENT_THEORY":"SGP4","MEAN_ANOMALY":"239.1192","SITE":"AFETR","OBJECT_TYPE":"PAYLOAD","RA_OF_ASC_NODE":"188.8243","EPHEMERIS_TYPE":"0","FILE":"3880853","MEAN_MOTION_DDOT":"0.0000000000000"},{"TIME_SYSTEM":"UTC","APOAPSIS":"540.574","MEAN_MOTION_DOT":"-0.00000483","TLE_LINE1":"1 52127U 22029AR  23095.57141056 -.00000483  00000-0 -12254-4 0  9995","FILE":"3880853","MEAN_MOTION_DDOT":"0.0000000000000","OBJECT_TYPE":"PAYLOAD","EPHEMERIS_TYPE":"0","RA_OF_ASC_NODE":"188.5746","SITE":"AFETR","ARG_OF_PERICENTER":"108.1388","INCLINATION":"53.2161","PERIOD":"95.438","MEAN_ANOMALY":"251.9735","MEAN_ELEMENT_THEORY":"SGP4","NORAD_CAT_ID":"52127","BSTAR":"-0.00001225400000","OBJECT_ID":"2022-029AR","CLASSIFICATION_TYPE":"U","OBJECT_NAME":"STARLINK-3715","GP_ID":"229537259","RCS_SIZE":"LARGE","REF_FRAME":"TEME","LAUNCH_DATE":"2022-03-19","EPOCH":"2023-04-05T13:42:49.872384","ELEMENT_SET_NO":"999","SEMIMAJOR_AXIS":"6917.882","MEAN_MOTION":"15.08839508","COUNTRY_CODE":"US","TLE_LINE2":"2 52127  53.2161 188.5746 0001196 108.1388 251.9735 15.08839508 59522","CENTER_NAME":"EARTH","ECCENTRICITY":"0.00011960","REV_AT_EPOCH":"5952","DECAY_DATE":null,"PERIAPSIS":"538.920"},{"CLASSIFICATION_TYPE":"U","OBJECT_ID":"2022-029AT","BSTAR":"0.00006347800000","SEMIMAJOR_AXIS":"6917.876","LAUNCH_DATE":"2022-03-19","EPOCH":"2023-04-05T13:32:14.136864","ELEMENT_SET_NO":"999","GP_ID":"229537509","REF_FRAME":"TEME","RCS_SIZE":"LARGE","OBJECT_NAME":"STARLINK-3661","TLE_LINE2":"2 52129  53.2165 188.6112 0001225  86.5463 273.5669 15.08841280 59539","MEAN_MOTION":"15.08841280","COUNTRY_CODE":"US","PERIAPSIS":"538.894","DECAY_DATE":null,"REV_AT_EPOCH":"5953","ECCENTRICITY":"0.00012250","CENTER_NAME":"EARTH","MEAN_MOTION_DOT":"0.00000723","APOAPSIS":"540.589","TIME_SYSTEM":"UTC","TLE_LINE1":"1 52129U 22029AT  23095.56405251  .00000723  00000-0  63478-4 0  9995","RA_OF_ASC_NODE":"188.6112","EPHEMERIS_TYPE":"0","OBJECT_TYPE":"PAYLOAD","MEAN_MOTION_DDOT":"0.0000000000000","FILE":"3880853","MEAN_ELEMENT_THEORY":"SGP4","NORAD_CAT_ID":"52129","MEAN_ANOMALY":"273.5669","PERIOD":"95.437","INCLINATION":"53.2165","ARG_OF_PERICENTER":"86.5463","SITE":"AFETR"},{"PERIOD":"95.438","INCLINATION":"53.2150","ARG_OF_PERICENTER":"99.0304","NORAD_CAT_ID":"52131","MEAN_ELEMENT_THEORY":"SGP4","MEAN_ANOMALY":"261.0814","SITE":"AFETR","OBJECT_TYPE":"PAYLOAD","RA_OF_ASC_NODE":"188.9250","EPHEMERIS_TYPE":"0","MEAN_MOTION_DDOT":"0.0000000000000","FILE":"3880853","TLE_LINE1":"1 52131U 22029AV  23095.49413871 -.00000124  00000-0  10282-4 0  9998","MEAN_MOTION_DOT":"-0.00000124","APOAPSIS":"540.553","TIME_SYSTEM":"UTC","REV_AT_EPOCH":"5952","ECCENTRICITY":"0.00011110","PERIAPSIS":"539.016","DECAY_DATE":null,"CENTER_NAME":"EARTH","COUNTRY_CODE":"US","MEAN_MOTION":"15.08827338","TLE_LINE2":"2 52131  53.2150 188.9250 0001111  99.0304 261.0814 15.08827338 59520","SEMIMAJOR_AXIS":"6917.919","GP_ID":"229538758","RCS_SIZE":"LARGE","REF_FRAME":"TEME","OBJECT_NAME":"STARLINK-3711","EPOCH":"2023-04-05T11:51:33.584544","LAUNCH_DATE":"2022-03-19","ELEMENT_SET_NO":"999","OBJECT_ID":"2022-029AV","CLASSIFICATION_TYPE":"U","BSTAR":"0.00001028200000"},{"RA_OF_ASC_NODE":"188.5959","EPHEMERIS_TYPE":"0","OBJECT_TYPE":"PAYLOAD","FILE":"3880853","MEAN_MOTION_DDOT":"0.0000000000000","MEAN_ELEMENT_THEORY":"SGP4","NORAD_CAT_ID":"52132","MEAN_ANOMALY":"277.5858","INCLINATION":"53.2161","PERIOD":"95.438","ARG_OF_PERICENTER":"82.5265","SITE":"AFETR","MEAN_MOTION_DOT":"0.00008995","APOAPSIS":"540.538","TIME_SYSTEM":"UTC","TLE_LINE1":"1 52132U 22029AW  23095.56773466  .00008995  00000-0  58254-3 0  9999","TLE_LINE2":"2 52132  53.2161 188.5959 0001148  82.5265 277.5858 15.08840526 59533","MEAN_MOTION":"15.08840526","COUNTRY_CODE":"US","PERIAPSIS":"538.950","DECAY_DATE":null,"REV_AT_EPOCH":"5953","ECCENTRICITY":"0.00011480","CENTER_NAME":"EARTH","CLASSIFICATION_TYPE":"U","OBJECT_ID":"2022-029AW","BSTAR":"0.00058254000000","SEMIMAJOR_AXIS":"6917.879","LAUNCH_DATE":"2022-03-19","EPOCH":"2023-04-05T13:37:32.274624","ELEMENT_SET_NO":"999","GP_ID":"229538997","RCS_SIZE":"LARGE","REF_FRAME":"TEME","OBJECT_NAME":"STARLINK-3718"},{"TLE_LINE1":"1 52133U 22029AX  23095.55300980  .00006598  00000-0  43212-3 0  9991","TIME_SYSTEM":"UTC","MEAN_MOTION_DOT":"0.00006598","APOAPSIS":"540.550","SITE":"AFETR","PERIOD":"95.437","INCLINATION":"53.2160","ARG_OF_PERICENTER":"96.7036","NORAD_CAT_ID":"52133","MEAN_ELEMENT_THEORY":"SGP4","MEAN_ANOMALY":"263.4093","MEAN_MOTION_DDOT":"0.0000000000000","FILE":"3880853","OBJECT_TYPE":"PAYLOAD","RA_OF_ASC_NODE":"188.6618","EPHEMERIS_TYPE":"0","GP_ID":"229537759","RCS_SIZE":"LARGE","REF_FRAME":"TEME","OBJECT_NAME":"STARLINK-3707","ELEMENT_SET_NO":"999","LAUNCH_DATE":"2022-03-19","EPOCH":"2023-04-05T13:16:20.046720","SEMIMAJOR_AXIS":"6917.852","BSTAR":"0.00043212000000","OBJECT_ID":"2022-029AX","CLASSIFICATION_TYPE":"U","CENTER_NAME":"EARTH","REV_AT_EPOCH":"5953","ECCENTRICITY":"0.00012040","PERIAPSIS":"538.884","DECAY_DATE":null,"MEAN_MOTION":"15.08849315","COUNTRY_CODE":"US","TLE_LINE2":"2 52133  53.2160 188.6618 0001204  96.7036 263.4093 15.08849315 59532"},{"APOAPSIS":"540.675","MEAN_MOTION_DOT":"-0.00000679","TIME_SYSTEM":"UTC","TLE_LINE1":"1 52134U 22029AY  23095.55669217 -.00000679  00000-0 -24588-4 0  9995","OBJECT_TYPE":"PAYLOAD","EPHEMERIS_TYPE":"0","RA_OF_ASC_NODE":"188.6482","MEAN_MOTION_DDOT":"0.0000000000000","FILE":"3880853","ARG_OF_PERICENTER":"98.3535","PERIOD":"95.438","INCLINATION":"53.2164","MEAN_ANOMALY":"261.7608","MEAN_ELEMENT_THEORY":"SGP4","NORAD_CAT_ID":"52134","SITE":"AFETR","OBJECT_ID":"2022-029AY","CLASSIFICATION_TYPE":"U","BSTAR":"-0.00002458800000","SEMIMAJOR_AXIS":"6917.890","OBJECT_NAME":"STARLINK-3721","REF_FRAME":"TEME","GP_ID":"229538009","RCS_SIZE":"LARGE","EPOCH":"2023-04-05T13:21:38.203488","LAUNCH_DATE":"2022-03-19","ELEMENT_SET_NO":"999","COUNTRY_CODE":"US","MEAN_MOTION":"15.08836783","TLE_LINE2":"2 52134  53.2164 188.6482 0001330  98.3535 261.7608 15.08836783 59536","ECCENTRICITY":"0.00013300","REV_AT_EPOCH":"5953","DECAY_DATE":null,"PERIAPSIS":"538.835","CENTER_NAME":"EARTH"}];
